ProvinceEN,ZipCode,latitude,longitude
Amnat Charoen,37000,15.83115385,104.6475385
Amnat Charoen,37110,15.88542857,104.8995714
Amnat Charoen,37180,15.69125,104.87075
Amnat Charoen,37210,16.13,104.9384
Amnat Charoen,37240,15.68875,104.52475
Amnat Charoen,37290,16.053,104.6805
Ang Thong,14000,14.583,100.449
Ang Thong,14110,14.55486667,100.3234
Ang Thong,14120,14.67006667,100.369
Ang Thong,14130,14.49025,100.45325
Ang Thong,14140,14.67466667,100.4682222
Ang Thong,14150,14.74771429,100.3001429
Ang Thong,14160,14.5986,100.261
Bangkok,10200,13.75641667,100.49925
Bangkok,10300,13.76875,100.51375
Buri Ram,31000,14.99245161,103.121
Buri Ram,31110,14.65167857,102.7672143
Buri Ram,31120,15.55308333,102.9295
Buri Ram,31130,15.0206875,102.868875
Buri Ram,31140,14.6155625,103.0566875
Buri Ram,31150,15.243125,103.2765
Buri Ram,31160,14.95327273,103.3214545
Buri Ram,31170,14.40925,102.86475
Buri Ram,31180,14.41266667,103.1251111
Buri Ram,31190,15.26057143,103.0407143
Buri Ram,31210,14.7239,102.5599
Buri Ram,31220,14.4226,102.6738
Buri Ram,31230,15.6992,102.9366
Buri Ram,31240,14.86428571,102.6718571
Buri Ram,31250,14.7324,103.1662
Buri Ram,31260,14.29166667,102.7276667
Chachoengsao,24000,13.72641667,101.0497083
Chachoengsao,24110,13.7261,101.1937
Chachoengsao,24120,13.75663636,101.3504545
Chachoengsao,24130,13.52428571,100.9905714
Chachoengsao,24140,13.60841176,101.0768235
Chachoengsao,24150,13.87066667,101.0705
Chachoengsao,24160,13.54866667,101.6281667
Chachoengsao,24170,13.92,100.9686667
Chachoengsao,24180,13.5624,100.9296
Chachoengsao,24190,13.56575,101.3365
Chai Nat,17000,15.18855556,100.1328889
Chai Nat,17110,15.3375,100.1145
Chai Nat,17120,15.23372727,99.93163636
Chai Nat,17130,15.002625,99.92275
Chai Nat,17140,15.031125,100.189125
Chai Nat,17150,15.13957143,100.2515714
Chai Nat,17160,15.08133333,100.022
Chai Nat,17170,15.29966667,100.1966667
Chaiyaphum,36000,15.863375,102.052
Chaiyaphum,36110,16.36063636,102.1746364
Chaiyaphum,36120,16.27309091,101.9134545
Chaiyaphum,36130,15.5768,101.8397333
Chaiyaphum,36140,15.92944444,102.2828889
Chaiyaphum,36150,16.1371,102.2158
Chaiyaphum,36160,15.4636,101.6228
Chaiyaphum,36170,15.79566667,101.8721667
Chaiyaphum,36180,16.564,101.8595
Chaiyaphum,36190,16.3736,102.3644
Chaiyaphum,36210,16.1425,101.645
Chaiyaphum,36220,15.452,101.789
Chaiyaphum,36230,15.5874,101.485
Chaiyaphum,36240,15.684,102.0576667
Chaiyaphum,36250,15.8008,101.6806
Chaiyaphum,36260,15.9565,101.38075
Chanthaburi,22000,12.59363636,102.1158182
Chanthaburi,22110,12.461,102.2581538
Chanthaburi,22120,12.58521429,102.0127143
Chanthaburi,22130,12.41883333,102.1346667
Chanthaburi,22140,12.9648,102.3878
Chanthaburi,22150,12.72285714,102.2255714
Chanthaburi,22160,12.94328571,101.8588571
Chanthaburi,22170,12.718625,101.922375
Chanthaburi,22180,13.1854,102.2484
Chanthaburi,22190,12.50833333,102.131
Chanthaburi,22210,12.8984,102.0886
Chiang Mai,50000,18.7834,99.0204
Chiang Mai,50100,18.76433333,98.986
Chiang Mai,50110,19.932,99.1738
Chiang Mai,50120,18.60190909,98.88309091
Chiang Mai,50130,18.7510625,99.1971875
Chiang Mai,50140,18.69841667,99.02175
Chiang Mai,50150,19.159,98.89733333
Chiang Mai,50160,18.481125,98.709125
Chiang Mai,50170,19.47314286,98.90628571
Chiang Mai,50180,18.9223,98.9303
Chiang Mai,50190,19.33372727,99.20254545
Chiang Mai,50200,18.7905,98.985
Chiang Mai,50210,18.86144444,99.05655556
Chiang Mai,50220,18.85521429,99.14957143
Chiang Mai,50230,18.7007,98.9292
Chiang Mai,50240,18.143875,98.5255
Chiang Mai,50250,18.9074,98.6324
Chiang Mai,50260,17.93916667,98.6705
Chiang Mai,50270,18.53257143,98.30857143
Chiang Mai,50280,19.99833333,99.30366667
Chiang Mai,50290,18.978,99.0105
Chiang Mai,50300,18.81725,98.9905
Chiang Mai,50310,17.65716667,98.3325
Chiang Mai,50320,19.7306,99.1534
Chiang Mai,50330,19.027,98.8335
Chiang Mai,50340,18.613,98.945
Chiang Mai,50350,19.60733333,98.65466667
Chiang Mai,50360,18.628,98.7598
Chiang Mai,58130,19.019,98.293
Chiang Rai,57000,19.84754545,99.77245455
Chiang Rai,57100,19.9936,99.8522
Chiang Rai,57110,20.15723077,99.9
Chiang Rai,57120,19.57425,99.76475
Chiang Rai,57130,20.38516667,99.92383333
Chiang Rai,57140,20.15528571,100.3432857
Chiang Rai,57150,20.27816667,100.1125
Chiang Rai,57160,19.7142,100.2254
Chiang Rai,57170,19.33275,99.459
Chiang Rai,57180,19.65985714,99.48557143
Chiang Rai,57190,19.4962,99.9754
Chiang Rai,57210,19.93275,100.0065
Chiang Rai,57220,20.298,99.8995
Chiang Rai,57230,19.62475,100.07175
Chiang Rai,57240,20.27525,99.788
Chiang Rai,57250,19.7598,99.7246
Chiang Rai,57260,19.16766667,99.44766667
Chiang Rai,57270,20.239,99.959
Chiang Rai,57280,19.462,99.782
Chiang Rai,57290,19.8898,100.166
Chiang Rai,57310,20.05175,100.497
Chiang Rai,57340,19.85833333,100.2703333
Chon Buri,20000,13.36266667,100.9977333
Chon Buri,20110,13.16366667,100.999
Chon Buri,20120,13.151,100.809
Chon Buri,20130,13.27966667,100.9383333
Chon Buri,20140,13.46710526,101.2007368
Chon Buri,20150,12.936,100.9209
Chon Buri,20160,13.47027273,101.089
Chon Buri,20170,13.3274,101.1206
Chon Buri,20180,12.62128571,100.9044762
Chon Buri,20190,13.1396,101.3802
Chon Buri,20220,13.23933333,101.2
Chon Buri,20230,13.0625,101.0495
Chon Buri,20240,13.396,101.3545
Chon Buri,20250,12.76,100.8973333
Chon Buri,20270,13.27416667,101.462
Chumphon,86000,10.50354545,99.19009091
Chumphon,86100,10.39433333,99.096
Chumphon,86110,9.936,99.06745455
Chumphon,86120,10.41672222,99.32661111
Chumphon,86130,10.24140909,99.14413636
Chumphon,86140,10.74955556,99.14911111
Chumphon,86150,10.00933333,99.16033333
Chumphon,86160,10.71325,99.31925
Chumphon,86170,9.75575,99.0295
Chumphon,86180,9.84,98.823
Chumphon,86190,10.52733333,98.99933333
Chumphon,86210,10.8538,99.4685
Chumphon,86220,10.12038462,99.14484615
Chumphon,86230,10.608,99.25
Kalasin,46000,16.50277273,103.5856364
Kalasin,46110,16.5225,104.0499167
Kalasin,46120,16.4312,103.3676667
Kalasin,46130,16.28184615,103.5519231
Kalasin,46140,16.71757143,103.5618571
Kalasin,46150,16.754125,103.74875
Kalasin,46160,16.72245455,104.0590909
Kalasin,46170,16.61222222,103.2417778
Kalasin,46180,16.8944,103.6095
Kalasin,46190,16.86666667,103.2453333
Kalasin,46210,16.27933333,103.7193333
Kalasin,46220,16.72888889,103.3268889
Kalasin,46230,16.5784,103.7958
Kalasin,46240,16.6605,103.90675
Kamphaeng Phet,62000,16.46917647,99.47223529
Kamphaeng Phet,62110,16.7041,99.5807
Kamphaeng Phet,62120,16.19038462,99.62892308
Kamphaeng Phet,62130,16.093,99.8485
Kamphaeng Phet,62140,16.01671429,99.66442857
Kamphaeng Phet,62150,16.44428571,99.85614286
Kamphaeng Phet,62160,16.329,99.5905
Kamphaeng Phet,62170,16.59614286,99.86157143
Kamphaeng Phet,62180,16.2415,99.2505
Kamphaeng Phet,62190,16.311,99.892
Kamphaeng Phet,62210,16.2145,99.9415
Kanchanaburi,70190,13.954,99.851
Kanchanaburi,71000,14.00628571,99.46157143
Kanchanaburi,71110,13.93358333,99.61633333
Kanchanaburi,71120,13.88433333,99.78277778
Kanchanaburi,71130,13.983875,99.76575
Kanchanaburi,71140,14.11371429,99.68857143
Kanchanaburi,71150,14.17842857,99.02342857
Kanchanaburi,71160,14.35175,99.4615
Kanchanaburi,71170,14.3254,99.6894
Kanchanaburi,71180,14.72842857,98.68271429
Kanchanaburi,71190,14.14175,99.33225
Kanchanaburi,71210,14.60185714,99.69642857
Kanchanaburi,71220,14.6854,99.3716
Kanchanaburi,71240,15.152,98.51666667
Kanchanaburi,71250,14.5886,99.0822
Kanchanaburi,71260,13.83375,99.3695
Khon Kaen,40000,16.469125,102.8151875
Khon Kaen,40110,16.06209524,102.7409048
Khon Kaen,40120,15.81058333,102.58725
Khon Kaen,40130,16.5465,102.183375
Khon Kaen,40140,16.69633333,102.9112222
Khon Kaen,40150,16.69928571,102.4238571
Khon Kaen,40160,16.163,102.4836667
Khon Kaen,40170,16.67821429,103.0757143
Khon Kaen,40180,16.02375,102.57625
Khon Kaen,40190,15.76633333,102.7780833
Khon Kaen,40210,16.50133333,102.3861667
Khon Kaen,40220,16.7609,102.1198
Khon Kaen,40230,15.80483333,102.4086667
Khon Kaen,40240,16.474,102.54
Khon Kaen,40250,16.7835,102.6693333
Khon Kaen,40260,16.324,102.841
Khon Kaen,40270,16.47328571,102.616
Khon Kaen,40280,16.8998,102.7934
Khon Kaen,40290,16.651,102.003
Khon Kaen,40310,16.71033333,102.7786667
Khon Kaen,40320,16.2962,102.691
Khon Kaen,40330,15.933,102.4624
Khon Kaen,40340,15.88775,102.8755
Khon Kaen,40350,16.6968,101.8884
Krabi,80240,8.2325,99.2735
Krabi,81000,8.0527,98.76416667
Krabi,81110,8.3085,98.71475
Krabi,81120,7.894470588,99.17605882
Krabi,81130,7.927947368,99.01863158
Krabi,81140,8.2925,99.0765
Krabi,81150,7.509769231,99.11715385
Krabi,81160,8.54525,98.81425
Krabi,81170,7.7345,99.2065
Lampang,52000,18.37433333,99.56722222
Lampang,52100,18.3645,99.42833333
Lampang,52110,18.7662,99.9308
Lampang,52120,18.74228571,99.63357143
Lampang,52130,18.16677778,99.35544444
Lampang,52140,19.137625,99.629625
Lampang,52150,18.1057,99.549
Lampang,52160,17.614,99.25271429
Lampang,52170,17.89875,99.346
Lampang,52180,17.507,99.098
Lampang,52190,18.337,99.31342857
Lampang,52210,18.079,99.173
Lampang,52220,18.344,99.7906
Lampang,52230,17.468,99.216
Lampang,52240,18.7672,99.4858
Lamphun,51000,18.55638462,99.01838462
Lamphun,51110,17.80925,98.925
Lamphun,51120,18.45816667,98.86458333
Lamphun,51130,18.3152,98.7846
Lamphun,51140,18.4745,99.19
Lamphun,51150,18.652,99.0275
Lamphun,51160,17.98633333,99.054
Lamphun,51170,18.346,99.0035
Lamphun,51180,18.6465,99.1765
Loei,42000,17.52233333,101.7063333
Loei,42100,17.612,101.7505
Loei,42110,17.810625,101.710375
Loei,42120,17.2757,101.2059
Loei,42130,17.2779,101.7532
Loei,42140,17.6185,101.4188333
Loei,42150,17.89483333,101.9588333
Loei,42160,17.411,101.3955
Loei,42170,17.4456,100.9986
Loei,42180,16.921,101.8865
Loei,42190,17.05866667,101.8266667
Loei,42210,17.505,101.9725
Loei,42220,17.27425,101.9785
Loei,42230,17.1098,101.6594
Loei,42240,17.0446,102.005
Lop Buri,13240,14.674,100.597
Lop Buri,15000,14.7697,100.61615
Lop Buri,15110,15.0565,100.5619444
Lop Buri,15120,15.06584615,100.7409231
Lop Buri,15130,15.2,101.1580714
Lop Buri,15140,14.90633333,101.0355
Lop Buri,15150,14.81933333,100.5081111
Lop Buri,15160,14.8955,100.625
Lop Buri,15170,15.27316667,100.6948333
Lop Buri,15180,14.93533333,100.468
Lop Buri,15190,15.32633333,101.3321667
Lop Buri,15210,14.866,100.817
Lop Buri,15220,14.871,100.8805
Lop Buri,15230,15.05711111,101.1423333
Lop Buri,15240,15.2068,100.8442
Lop Buri,15250,15.4204,100.8424
Lop Buri,18220,14.951,101.205
Mae Hong Son,58000,19.264,97.98466667
Mae Hong Son,58110,18.09623077,97.93461538
Mae Hong Son,58120,18.4875,98.011875
Mae Hong Son,58130,19.32885714,98.41871429
Mae Hong Son,58140,18.80483333,97.911
Mae Hong Son,58150,19.57725,98.199
Maha Sarakham,44000,16.11678571,103.3392857
Maha Sarakham,44110,15.52892308,103.2422308
Maha Sarakham,44120,15.86506667,103.3556667
Maha Sarakham,44130,15.99936842,103.0905263
Maha Sarakham,44140,16.24958824,103.0158824
Maha Sarakham,44150,16.2846,103.2811
Maha Sarakham,44160,16.44325,103.1018333
Maha Sarakham,44170,15.8015,103.0386
Maha Sarakham,44180,15.72266667,103.2436667
Maha Sarakham,44190,16.0514,103.405
Maha Sarakham,44210,15.65657143,103.1045714
Mukdahan,49000,16.56138462,104.6188462
Mukdahan,49110,16.612,104.38775
Mukdahan,49120,16.31485714,104.8217143
Mukdahan,49130,16.35528571,104.551
Mukdahan,49140,16.79716667,104.4616667
Mukdahan,49150,16.7266,104.721
Mukdahan,49160,16.44883333,104.3608333
Nakhon Nayok,26000,14.21728571,101.2028571
Nakhon Nayok,26110,14.2556,101.0556
Nakhon Nayok,26120,14.0891,101.0013
Nakhon Nayok,26130,14.17942857,101.2957143
Nakhon Pathom,73000,13.82192,100.03248
Nakhon Pathom,73110,13.7194,100.2033
Nakhon Pathom,73120,13.81620833,100.184125
Nakhon Pathom,73130,14.02438462,100.1936923
Nakhon Pathom,73140,14.00433333,99.9625
Nakhon Pathom,73150,13.941,100.097
Nakhon Pathom,73160,13.7,100.268
Nakhon Pathom,73170,13.83,100.2826667
Nakhon Pathom,73180,14.11233333,100.0106667
Nakhon Pathom,73190,14.106,100.12
Nakhon Pathom,73210,13.769,100.28475
Nakhon Pathom,73220,13.737,100.322
Nakhon Phanom,48000,17.32228571,104.6955714
Nakhon Phanom,48110,16.99558333,104.7054167
Nakhon Phanom,48120,17.61677778,104.4986667
Nakhon Phanom,48130,16.979375,104.478875
Nakhon Phanom,48140,17.883625,104.161625
Nakhon Phanom,48150,17.62733333,104.2395556
Nakhon Phanom,48160,17.18825,104.532125
Nakhon Phanom,48170,17.04125,104.65225
Nakhon Phanom,48180,17.51266667,104.08
Nakhon Phanom,48190,17.4662,104.4146
Nakhon Ratchasima,30000,14.96766667,102.1024444
Nakhon Ratchasima,30110,15.24233333,102.5195833
Nakhon Ratchasima,30120,15.60464286,102.4328571
Nakhon Ratchasima,30130,14.6286,101.5104
Nakhon Ratchasima,30140,14.9667,101.6365
Nakhon Ratchasima,30150,14.66970588,101.9757059
Nakhon Ratchasima,30160,15.1876,102.2668667
Nakhon Ratchasima,30170,14.904625,101.823125
Nakhon Ratchasima,30180,15.56238462,102.7062308
Nakhon Ratchasima,30190,14.7617,102.1921
Nakhon Ratchasima,30210,15.23533333,101.6915
Nakhon Ratchasima,30220,15.24033333,102.0132667
Nakhon Ratchasima,30230,14.97266667,102.3899167
Nakhon Ratchasima,30240,15.0354,102.6551
Nakhon Ratchasima,30250,14.47391667,102.2428333
Nakhon Ratchasima,30260,15.4265,102.3128
Nakhon Ratchasima,30270,15.31805882,102.8235882
Nakhon Ratchasima,30280,15.004,101.9378333
Nakhon Ratchasima,30290,15.38628571,102.1718571
Nakhon Ratchasima,30310,15.0622,102.1566
Nakhon Ratchasima,30320,14.599,101.2645
Nakhon Ratchasima,30330,14.3765,102.4735
Nakhon Ratchasima,30340,14.853,101.572
Nakhon Ratchasima,30350,15.57675,102.12075
Nakhon Ratchasima,30360,15.4505,102.53975
Nakhon Ratchasima,30370,14.429,101.88025
Nakhon Ratchasima,30380,14.8225,101.9185
Nakhon Ratchasima,30410,14.72477778,102.373
Nakhon Ratchasima,30420,15.263,102.392
Nakhon Ratchasima,30430,15.5666,102.557
Nakhon Ratchasima,30440,15.6986,102.2422
Nakhon Ratchasima,36220,15.366,101.832
Nakhon Sawan,60000,15.70886667,100.1354667
Nakhon Sawan,60110,15.86055556,100.5633333
Nakhon Sawan,60120,15.87588889,100.2975556
Nakhon Sawan,60130,15.48218182,100.1655455
Nakhon Sawan,60140,15.313,100.33125
Nakhon Sawan,60150,15.75947368,99.68973684
Nakhon Sawan,60160,15.6621,100.4538
Nakhon Sawan,60170,15.576,100.021
Nakhon Sawan,60180,15.98276923,99.98469231
Nakhon Sawan,60190,15.35371429,100.4762857
Nakhon Sawan,60210,15.17925,100.42125
Nakhon Sawan,60220,15.590875,100.680625
Nakhon Sawan,60230,15.8616,100.0892
Nakhon Sawan,60240,15.764,99.981
Nakhon Sawan,60250,15.78666667,100.2663333
Nakhon Sawan,60260,15.169,100.494
Nakhon Si Thammarat,80000,8.405875,99.9615625
Nakhon Si Thammarat,80110,8.140166667,99.64691667
Nakhon Si Thammarat,80120,8.959571429,99.84057143
Nakhon Si Thammarat,80130,8.121625,99.876375
Nakhon Si Thammarat,80140,8.299714286,100.191
Nakhon Si Thammarat,80150,8.4378,99.5048
Nakhon Si Thammarat,80160,8.689928571,99.84721429
Nakhon Si Thammarat,80170,8.024909091,100.2577273
Nakhon Si Thammarat,80180,7.970692308,99.97038462
Nakhon Si Thammarat,80190,8.1465,100.1436667
Nakhon Si Thammarat,80210,9.23775,99.80225
Nakhon Si Thammarat,80220,8.26,99.53833333
Nakhon Si Thammarat,80230,8.3816,99.7844
Nakhon Si Thammarat,80240,8.300571429,99.36685714
Nakhon Si Thammarat,80250,8.3938,99.6004
Nakhon Si Thammarat,80260,8.498666667,99.42316667
Nakhon Si Thammarat,80270,8.5762,99.6104
Nakhon Si Thammarat,80280,8.4265,99.8515
Nakhon Si Thammarat,80290,8.226,100.01
Nakhon Si Thammarat,80310,8.029,99.683
Nakhon Si Thammarat,80320,8.5326,99.8246
Nakhon Si Thammarat,80330,8.323,100.07875
Nakhon Si Thammarat,80340,8.8655,99.8195
Nakhon Si Thammarat,80350,8.2445,99.902
Nakhon Si Thammarat,80360,7.9885,99.475
Nan,55000,18.78038889,100.7541667
Nan,55110,18.58058824,100.7419412
Nan,55120,19.17308333,100.9439167
Nan,55130,19.4825,100.9405
Nan,55140,19.1198,100.7849
Nan,55150,18.31585714,100.6924286
Nan,55160,19.32677778,100.8086667
Nan,55170,18.6998,101.0126
Nan,55180,18.14925,100.6095
Nan,55190,18.849,100.43575
Nan,55210,18.918,100.945
Nan,55220,19.15425,101.17625
Narathiwat,96000,6.387857143,101.8145714
Narathiwat,96110,6.2265,102.022375
Narathiwat,96120,6.06975,101.99225
Narathiwat,96130,6.267888889,101.7413333
Narathiwat,96140,6.0725,101.878
Narathiwat,96150,6.381888889,101.5217778
Narathiwat,96160,5.918666667,101.859
Narathiwat,96170,6.543833333,101.6405
Narathiwat,96180,6.4115,101.6931667
Narathiwat,96190,5.931,101.739
Narathiwat,96210,6.2165,101.5145
Narathiwat,96220,6.1002,101.678
Nong Bua Lam Phu,39000,17.16793333,102.3946667
Nong Bua Lam Phu,39140,16.9003,102.5365
Nong Bua Lam Phu,39170,17.309,102.1222727
Nong Bua Lam Phu,39180,17.00283333,102.2385833
Nong Bua Lam Phu,39270,17.552375,102.263125
Nong Bua Lam Phu,39350,17.39633333,102.2683333
Nong Khai,43000,17.87261538,102.7795385
Nong Khai,43100,17.704,102.7396667
Nong Khai,43110,17.7947,102.5638
Nong Khai,43120,18.01952381,103.1832381
Nong Khai,43130,17.91842857,102.4725714
Nong Khai,43160,18.0794,102.2064
Nonthaburi,11000,13.8508,100.4852
Nonthaburi,11110,13.925625,100.39925
Nonthaburi,11120,13.91908333,100.4935833
Nonthaburi,11130,13.81255556,100.4402222
Nonthaburi,11140,13.8555,100.3888333
Nonthaburi,11150,14.00085714,100.3131429
Pathum Thani,12000,13.99642857,100.5409286
Pathum Thani,12110,14.04425,100.8035
Pathum Thani,12120,14.09671429,100.6847143
Pathum Thani,12130,13.98033333,100.6533333
Pathum Thani,12140,14.04371429,100.4144286
Pathum Thani,12150,13.97885714,100.8041429
Pathum Thani,12160,14.07427273,100.53
Pathum Thani,12170,14.16685714,100.8398571
Pattani,94000,6.854461538,101.2708462
Pattani,94110,6.6961,101.5882
Pattani,94120,6.724,101.09625
Pattani,94130,6.812111111,101.5105556
Pattani,94140,6.69675,101.406875
Pattani,94150,6.8313125,101.38725
Pattani,94160,6.733916667,101.30375
Pattani,94170,6.802,101.1859167
Pattani,94180,6.668285714,101.1987143
Pattani,94190,6.7566,101.4792
Pattani,94220,6.61875,101.67075
Pattani,94230,6.603666667,101.5396667
Phang-nga,82000,8.469222222,98.514
Phang-nga,82110,8.8302,98.3526
Phang-nga,82120,8.484666667,98.3045
Phang-nga,82130,8.293,98.445
Phang-nga,82140,8.225,98.332
Phang-nga,82150,9.024227273,97.87445455
Phang-nga,82160,8.1055,98.5905
Phang-nga,82170,8.7238,98.4514
Phang-nga,82180,8.5215,98.632
Phang-nga,82190,8.826333333,98.28433333
Phang-nga,83000,7.894333333,98.59033333
Phatthalung,93000,7.585666667,100.035381
Phatthalung,93110,7.7372,99.9831
Phatthalung,93120,7.327142857,100.3172857
Phatthalung,93130,7.478,100.1345
Phatthalung,93140,7.425333333,100.1663333
Phatthalung,93150,7.776333333,100.1193333
Phatthalung,93160,7.292,100.0593333
Phatthalung,93170,7.2474,100.1536
Phatthalung,93180,7.411666667,99.91866667
Phatthalung,93190,7.697333333,99.85833333
Phayao,56000,19.19061111,99.86761111
Phayao,56110,19.5371875,100.3314375
Phayao,56120,19.15258333,100.0325
Phayao,56130,19.37016667,99.79083333
Phayao,56140,19.19871429,100.3588571
Phayao,56150,19.37742857,100.1375714
Phayao,56160,18.91633333,100.3193333
Phetchabun,67000,16.41233333,101.18225
Phetchabun,67110,16.74986364,101.2475909
Phetchabun,67120,16.939,101.2376667
Phetchabun,67130,15.700625,101.1615
Phetchabun,67140,15.9882,101.1386
Phetchabun,67150,16.12383333,100.863
Phetchabun,67160,15.839125,100.993625
Phetchabun,67170,15.43871429,101.1005714
Phetchabun,67180,15.6096,100.9704
Phetchabun,67190,16.12033333,100.7156667
Phetchabun,67210,16.208,101.1155
Phetchabun,67220,16.10566667,101.023
Phetchabun,67230,15.747,100.861
Phetchabun,67240,16.3352,100.7834
Phetchabun,67250,16.59,101.134
Phetchabun,67260,16.8365,101.61575
Phetchabun,67270,16.5982,100.9738
Phetchabun,67280,16.806,101.035
Phetchaburi,76000,13.09778261,99.95447826
Phetchaburi,76100,13.0255,100.06
Phetchaburi,76110,13.18288889,99.97933333
Phetchaburi,76120,12.78488889,99.90511111
Phetchaburi,76130,12.90891667,99.8715
Phetchaburi,76140,13.2388,99.8141
Phetchaburi,76150,13.05194118,99.88605882
Phetchaburi,76160,13.132,99.58825
Phetchaburi,76170,12.88916667,99.5775
Phichit,66000,16.443,100.343
Phichit,66110,16.20583333,100.3936667
Phichit,66120,16.037375,100.429
Phichit,66130,16.0989375,100.2218125
Phichit,66140,16.467,100.1252857
Phichit,66150,16.1485,100.54275
Phichit,66160,16.5186,100.5316
Phichit,66180,16.37675,100.5525
Phichit,66190,16.31228571,100.1917143
Phichit,66210,16.01583333,100.6026667
Phichit,66220,16.591,100.1665
Phichit,66230,16.2335,100.603
Phitsanulok,65000,16.84527778,100.2546667
Phitsanulok,65110,16.59457143,100.2971429
Phitsanulok,65120,17.13372727,100.8492727
Phitsanulok,65130,16.74544444,100.455
Phitsanulok,65140,16.69288889,100.0634444
Phitsanulok,65150,17.01314286,100.1732857
Phitsanulok,65160,17.08716667,100.3371667
Phitsanulok,65170,17.3235,100.6378333
Phitsanulok,65180,17.1262,100.1202
Phitsanulok,65190,16.527,100.6648571
Phitsanulok,65210,16.568,100.451
Phitsanulok,65220,16.962,100.587
Phitsanulok,65230,16.67933333,100.2496667
Phitsanulok,65240,16.79,99.9695
Phra Nakhon Si Ayutthaya,13000,14.35542857,100.5619048
Phra Nakhon Si Ayutthaya,13110,14.31170588,100.3804706
Phra Nakhon Si Ayutthaya,13120,14.45990909,100.3819091
Phra Nakhon Si Ayutthaya,13130,14.5382,100.7109
Phra Nakhon Si Ayutthaya,13140,14.441125,100.724125
Phra Nakhon Si Ayutthaya,13150,14.56958333,100.5346667
Phra Nakhon Si Ayutthaya,13160,14.25333333,100.5853333
Phra Nakhon Si Ayutthaya,13170,14.24627273,100.7200909
Phra Nakhon Si Ayutthaya,13180,14.16,100.594
Phra Nakhon Si Ayutthaya,13190,14.23710526,100.4763684
Phra Nakhon Si Ayutthaya,13210,14.355,100.6899091
Phra Nakhon Si Ayutthaya,13220,14.47288235,100.5437647
Phra Nakhon Si Ayutthaya,13230,14.16628571,100.3497143
Phra Nakhon Si Ayutthaya,13240,14.6412,100.562
Phra Nakhon Si Ayutthaya,13250,14.3863125,100.4631875
Phra Nakhon Si Ayutthaya,13260,14.46308333,100.6285
Phra Nakhon Si Ayutthaya,13270,14.3095,100.3
Phra Nakhon Si Ayutthaya,13280,14.4482,100.3054
Phra Nakhon Si Ayutthaya,13290,14.16033333,100.534
Phrae,54000,18.16128571,100.1902381
Phrae,54110,17.9524,100.0362
Phrae,54120,18.46,100.200375
Phrae,54130,18.05327273,100.1249091
Phrae,54140,18.33045455,100.3395455
Phrae,54150,18.08255556,99.85255556
Phrae,54160,17.87314286,99.581
Phrae,54170,18.2865,100.1775
Phuket,83000,7.927571429,98.41957143
Phuket,83100,7.828,98.293
Phuket,83110,8.06525,98.38283333
Phuket,83120,7.914,98.338
Phuket,83130,7.711166667,98.33658333
Phuket,83150,7.9245,98.2985
Prachin Buri,25000,14.05577778,101.3865556
Prachin Buri,25110,13.93253846,101.7664615
Prachin Buri,25130,14.083125,101.558375
Prachin Buri,25140,13.9126,101.5213
Prachin Buri,25150,13.94244444,101.2446667
Prachin Buri,25190,13.8925,101.4105
Prachin Buri,25220,14.15433333,101.828
Prachin Buri,25230,14.14566667,101.3456667
Prachin Buri,25240,13.999,101.77
Prachuap Khiri Khan,77000,11.7964,99.7222
Prachuap Khiri Khan,77110,12.521,99.78685714
Prachuap Khiri Khan,77120,12.37466667,99.83683333
Prachuap Khiri Khan,77130,11.55383333,99.56733333
Prachuap Khiri Khan,77140,11.221,99.50866667
Prachuap Khiri Khan,77150,12.11483333,99.847
Prachuap Khiri Khan,77170,11.0592,99.373
Prachuap Khiri Khan,77180,12.2615,99.65125
Prachuap Khiri Khan,77190,11.3465,99.499
Prachuap Khiri Khan,77210,11.996,99.771
Prachuap Khiri Khan,77220,12.381,99.981
Prachuap Khiri Khan,77230,11.2515,99.381
Ranong,85000,9.85632,98.52428
Ranong,85110,10.43614286,98.82785714
Ranong,85120,9.518238095,98.466
Ranong,85130,10.082125,98.77775
Ratchaburi,70000,13.54381818,99.80454545
Ratchaburi,70110,13.80628571,99.8525
Ratchaburi,70120,13.69673684,99.81510526
Ratchaburi,70130,13.55054545,99.95863636
Ratchaburi,70140,13.38308333,99.762
Ratchaburi,70150,13.65166667,99.52716667
Ratchaburi,70160,13.67485714,99.97242857
Ratchaburi,70170,13.44866667,99.865
Ratchaburi,70180,13.46842857,99.37957143
Ratchaburi,70190,13.908,99.868
Ratchaburi,70210,13.5815,100.026
Rayong,21000,12.694375,101.304125
Rayong,21100,12.782,101.464
Rayong,21110,12.84438462,101.6402308
Rayong,21120,12.80285714,101.3238571
Rayong,21130,12.74133333,101.0556667
Rayong,21140,12.98433333,101.2443333
Rayong,21150,12.6555,101.1736667
Rayong,21160,12.62,101.4466667
Rayong,21170,12.737,101.7436667
Rayong,21180,12.84675,101.1515
Rayong,21190,12.608,101.6195714
Rayong,21210,12.93275,101.5185
Rayong,22160,12.815,101.792
Roi Et,45000,16.0556129,103.604129
Roi Et,45110,16.26492308,103.9600769
Roi Et,45120,16.06616667,103.9904444
Roi Et,45130,15.6234,103.8349333
Roi Et,45140,15.66105882,104.0639412
Roi Et,45150,15.62323077,103.5597692
Roi Et,45160,15.847,103.8636667
Roi Et,45170,16.026375,103.79275
Roi Et,45180,15.82625,103.5514167
Roi Et,45190,15.628375,103.389
Roi Et,45210,16.30177778,104.2146667
Roi Et,45220,15.7878,103.7492
Roi Et,45230,16.29777778,103.7925556
Roi Et,45240,15.488,103.9396
Roi Et,45250,16.3865,104.11375
Roi Et,45280,16.065,103.4835
Sa kaeo,27000,13.80266667,102.07325
Sa kaeo,27120,13.6912,102.5079333
Sa kaeo,27160,13.84518182,102.3506364
Sa kaeo,27180,13.98757143,102.7095714
Sa kaeo,27210,13.519,102.10225
Sa kaeo,27250,13.365,102.109
Sa kaeo,27260,13.49285714,102.278
Sakon Nakhon,47000,17.13830769,104.1556923
Sakon Nakhon,47110,17.45736364,103.3966364
Sakon Nakhon,47120,17.65171429,103.7292857
Sakon Nakhon,47130,17.3435,103.889875
Sakon Nakhon,47140,17.88977778,103.5306667
Sakon Nakhon,47150,17.2758,103.5868
Sakon Nakhon,47160,17.386,103.7456
Sakon Nakhon,47170,17.64225,103.9735
Sakon Nakhon,47180,16.99271429,103.8864286
Sakon Nakhon,47190,17.3235,103.4645
Sakon Nakhon,47210,17.34433333,104.3503333
Sakon Nakhon,47220,17.2845,103.98875
Sakon Nakhon,47230,17.256,104.26375
Sakon Nakhon,47240,17.4114,103.5906
Sakon Nakhon,47250,17.829,103.7885
Sakon Nakhon,47260,16.969,104.1675
Sakon Nakhon,47270,17.15625,103.73325
Sakon Nakhon,47280,17.03775,104.31375
Sakon Nakhon,47290,17.6222,103.5322
Samut Prakarn,10130,13.6584,100.5544
Samut Prakarn,10270,13.622,100.605
Samut Prakarn,10280,13.51,100.751
Samut Prakarn,10290,13.5668,100.5274
Samut Prakarn,10540,13.64333333,100.8056667
Samut Sakhon,74000,13.53783333,100.2505556
Samut Sakhon,74110,13.65022222,100.2637778
Samut Sakhon,74120,13.60266667,100.1256667
Samut Sakhon,74130,13.702,100.308
Samut Songkhram,75000,13.40718182,99.99809091
Samut Songkhram,75110,13.40325,99.92625
Samut Songkhram,75120,13.47484615,99.94569231
Saraburi,18000,14.53746667,100.9152667
Saraburi,18110,14.58915385,101.0243846
Saraburi,18120,14.714875,100.809875
Saraburi,18130,14.612875,100.713125
Saraburi,18140,14.33622222,100.8541111
Saraburi,18150,14.3475,100.987
Saraburi,18160,14.567,100.8428333
Saraburi,18170,14.487375,100.802375
Saraburi,18180,14.656,101.2113333
Saraburi,18190,14.6995,100.69125
Saraburi,18210,14.604,100.618
Saraburi,18220,14.839,101.177
Saraburi,18230,14.41283333,100.89
Saraburi,18240,14.6845,100.9045
Saraburi,18250,14.41233333,100.8013333
Saraburi,18260,14.605,101.095
Saraburi,18270,14.584,100.767
Saraburi,30130,14.939,101.374
Satun,91000,6.611542373,99.64359322
Satun,91110,6.903285714,99.77657143
Satun,91120,7.0466,99.75
Satun,91130,6.943,99.9942
Satun,91140,6.72175,100.04925
Satun,91150,6.809,99.91825
Satun,91160,6.7745,100.0965
Si Sa Ket,33000,15.0770625,104.3486875
Si Sa Ket,33110,14.63748,104.6772
Si Sa Ket,33120,15.15574074,104.1270741
Si Sa Ket,33130,15.06768182,104.5564545
Si Sa Ket,33140,14.68513793,104.1765172
Si Sa Ket,33150,14.60875,104.41975
Si Sa Ket,33160,15.38247059,104.1610588
Si Sa Ket,33170,14.8559,104.0387
Si Sa Ket,33180,14.79483333,104.3415
Si Sa Ket,33190,15.23757143,104.3875714
Si Sa Ket,33210,15.015,104.0365
Si Sa Ket,33220,15.3125,104.0635
Si Sa Ket,33230,14.9072,104.3794
Si Sa Ket,33240,14.80114286,104.4828571
Si Sa Ket,33250,14.9078,104.6752
Si Sa Ket,33270,14.956875,104.219875
Sing Buri,16000,14.8995,100.40225
Sing Buri,16110,15.0189,100.3471
Sing Buri,16120,14.78666667,100.4415
Sing Buri,16130,14.897125,100.28775
Sing Buri,16140,14.778,100.39075
Sing Buri,16150,14.82083333,100.296
Sing Buri,16160,14.837,100.451
Songkhla,90000,7.13325,100.62575
Songkhla,90100,7.146333333,100.549
Songkhla,90110,7.0444,100.4477333
Songkhla,90115,6.882,100.31
Songkhla,90120,6.62025,100.44675
Songkhla,90130,6.896214286,100.6983571
Songkhla,90140,7.7778125,100.309875
Songkhla,90150,6.8262,100.9318
Songkhla,90160,6.6661,100.6773
Songkhla,90170,6.781,100.468
Songkhla,90180,7.1172,100.222
Songkhla,90190,7.484181818,100.4224545
Songkhla,90210,6.558888889,100.9376667
Songkhla,90220,7.1975,100.3755
Songkhla,90230,6.857,100.42975
Songkhla,90240,6.7425,100.3095
Songkhla,90250,6.929,100.49
Songkhla,90260,6.742,100.8915
Songkhla,90270,7.6056,100.3151
Songkhla,90280,7.2234,100.5382
Songkhla,90310,6.949,100.557
Songkhla,90330,7.301857143,100.4638571
Sukhothai,64000,16.9826,99.825
Sukhothai,64110,17.28814286,99.82642857
Sukhothai,64120,17.15661538,99.80215385
Sukhothai,64130,17.55144444,99.75655556
Sukhothai,64140,17.02428571,99.51742857
Sukhothai,64150,17.357,99.54266667
Sukhothai,64160,16.8318,99.7619
Sukhothai,64170,16.944,99.98363636
Sukhothai,64180,17.372,99.9674
Sukhothai,64190,17.4265,99.812
Sukhothai,64210,17.064,99.6845
Sukhothai,64220,17.054,99.8865
Sukhothai,64230,17.2855,99.6475
Suphan Buri,72000,14.47728571,100.1319286
Suphan Buri,72110,14.21578571,100.0442143
Suphan Buri,72120,14.871,100.0611538
Suphan Buri,72130,14.75714286,100.0692857
Suphan Buri,72140,14.63,100.145
Suphan Buri,72150,14.35342857,100.143
Suphan Buri,72160,14.4004,99.8936
Suphan Buri,72170,14.65375,99.94075
Suphan Buri,72180,14.869,99.53985714
Suphan Buri,72190,14.13,99.849
Suphan Buri,72210,14.442,99.998
Suphan Buri,72220,14.263,99.91
Suphan Buri,72230,14.53333333,100.0083333
Suphan Buri,72240,14.782,99.83966667
Suphan Buri,72250,14.643,99.865
Surat Thani,84000,9.1393,99.3141
Surat Thani,84100,9.023,99.353
Surat Thani,84110,9.417555556,99.15544444
Surat Thani,84120,8.820857143,99.373
Surat Thani,84130,9.0688125,99.16025
Surat Thani,84140,9.604125,99.72255357
Surat Thani,84150,9.2915,99.09366667
Surat Thani,84160,9.120818182,99.52836364
Surat Thani,84170,9.604333333,99.03966667
Surat Thani,84180,9.0689,98.9324
Surat Thani,84190,8.5974,99.3458
Surat Thani,84210,8.555375,99.1505
Surat Thani,84220,9.302285714,99.68371429
Surat Thani,84230,8.97875,98.8275
Surat Thani,84240,8.90575,99.278
Surat Thani,84250,8.800166667,98.79633333
Surat Thani,84260,8.78575,99.16125
Surat Thani,84270,8.71,99.347
Surat Thani,84280,9.7398,99.9922
Surat Thani,84290,9.112666667,99.40133333
Surat Thani,84310,9.468,100.032
Surat Thani,84320,9.533,100.06
Surat Thani,84330,9.563,99.967
Surat Thani,84340,9.134,99.701
Surat Thani,84350,8.45225,99.0665
Surin,32000,14.91738462,103.5336154
Surin,32110,14.95333333,103.7905333
Surin,32120,15.2971,103.6404
Surin,32130,15.29364706,103.8961176
Surin,32140,14.60709091,103.3849091
Surin,32150,14.65394118,103.8539412
Surin,32160,15.17085714,103.7792857
Surin,32170,15.0464,103.9405
Surin,32180,15.13833333,103.59
Surin,32190,15.3885,103.3335
Surin,32210,14.47116667,103.5928333
Surin,32220,14.7276,103.7008
Surin,32230,14.52166667,103.9703333
Tak,63000,16.83538462,99.16569231
Tak,63110,16.7043,98.6535
Tak,63120,17.08242857,99.07271429
Tak,63130,17.26366667,99.03633333
Tak,63140,17.04383333,98.59816667
Tak,63150,17.46333333,98.12316667
Tak,63160,16.4518,98.769
Tak,63170,15.951,98.86233333
Trang,92000,7.577928571,99.59664286
Trang,92110,7.38955,99.4529
Trang,92120,7.11385,99.5327
Trang,92130,7.819727273,99.62463636
Trang,92140,7.401727273,99.71445455
Trang,92150,7.567333333,99.31311111
Trang,92160,7.96575,99.65825
Trang,92170,7.558714286,99.71957143
Trang,92180,7.25,99.797
Trang,92190,7.6805,99.61775
Trang,92210,7.78325,99.4835
Trang,92220,7.72875,99.401
Trat,23000,11.97980645,102.4999355
Trat,23110,11.79433333,102.8676667
Trat,23120,12.2155,102.3795
Trat,23130,12.40766667,102.4896667
Trat,23140,12.5754,102.5478
Trat,23150,12.4482,102.3912
Trat,23170,12.07566667,102.2996667
Ubon Ratchathani,34000,15.34766667,104.8897222
Ubon Ratchathani,34110,15.15121429,105.2487143
Ubon Ratchathani,34130,15.61730435,105.0575217
Ubon Ratchathani,34140,15.52771429,104.7182143
Ubon Ratchathani,34150,15.35657143,104.5492143
Ubon Ratchathani,34160,14.85366667,105.0236667
Ubon Ratchathani,34170,15.957,105.1895385
Ubon Ratchathani,34190,15.16305882,104.9182353
Ubon Ratchathani,34220,15.397,105.489
Ubon Ratchathani,34230,14.77175,105.369625
Ubon Ratchathani,34250,15.52954545,105.3177273
Ubon Ratchathani,34260,14.53109091,104.977
Ubon Ratchathani,34270,15.804,105.0392
Ubon Ratchathani,34280,14.62166667,105.2136667
Ubon Ratchathani,34310,15.118,104.7456667
Ubon Ratchathani,34320,15.49475,104.44875
Ubon Ratchathani,34330,15.384,105.1556667
Ubon Ratchathani,34340,15.79233333,105.3335
Ubon Ratchathani,34350,15.15466667,105.4086667
Ubon Ratchathani,34360,14.98622222,104.7875556
Udon Thani,41000,17.40882353,102.7632941
Udon Thani,41110,17.11466667,103.0148333
Udon Thani,41130,17.3500625,103.0945625
Udon Thani,41150,17.64954545,102.9351818
Udon Thani,41160,17.65192308,102.4540769
Udon Thani,41190,17.69961538,103.2649231
Udon Thani,41210,17.74971429,102.2072857
Udon Thani,41220,17.11825,102.58775
Udon Thani,41230,17.01285714,103.2155714
Udon Thani,41240,16.96566667,102.8935
Udon Thani,41250,17.43814286,102.5331429
Udon Thani,41260,17.79566667,103.055
Udon Thani,41280,17.002,103.444
Udon Thani,41290,17.23125,103.2485
Udon Thani,41310,17.514,103.19725
Udon Thani,41320,17.38033333,103.2516667
Udon Thani,41330,17.2715,102.872
Udon Thani,41340,17.139,102.80675
Udon Thani,41360,17.28075,102.5805
Udon Thani,41370,17.141,102.912
Udon Thani,41380,17.92225,102.14375
Uthai Thani,61000,15.40414286,100.0221429
Uthai Thani,61110,15.38333333,99.80733333
Uthai Thani,61120,15.482,99.8561
Uthai Thani,61130,15.36175,99.945375
Uthai Thani,61140,15.13671429,99.45528571
Uthai Thani,61150,15.587,99.8
Uthai Thani,61160,15.46716667,99.54283333
Uthai Thani,61170,15.2975,99.588
Uthai Thani,61180,15.14916667,99.699
Uttaradit,53000,17.659625,100.20925
Uttaradit,53110,17.74342857,100.7127143
Uttaradit,53120,17.267,100.0962222
Uttaradit,53130,17.6868,100.0226
Uttaradit,53140,17.4626,100.1154
Uttaradit,53150,17.8542,100.365
Uttaradit,53160,17.96675,100.862
Uttaradit,53170,17.545,100.079
Uttaradit,53180,18.08175,101.047
Uttaradit,53190,17.7335,100.41
Uttaradit,53210,17.552,100.0043333
Uttaradit,53220,17.3745,100.154
Uttaradit,53230,17.51375,100.33425
Yala,95000,6.492615385,101.2483846
Yala,95110,5.8152,101.17
Yala,95120,6.460222222,101.1041111
Yala,95130,6.244666667,101.2765
Yala,95140,6.4798125,101.4168125
Yala,95150,6.141666667,101.169
Yala,95160,6.57025,101.1905
Yala,95170,6.102,101.384
Yasothon,35000,15.8435,104.1746111
Yasothon,35110,15.67933333,104.2947778
Yasothon,35120,16.16473333,104.4833333
Yasothon,35130,15.5144,104.2584
Yasothon,35140,16.036,104.2955556
Yasothon,35150,15.8214,104.3758
Yasothon,35160,15.3785,104.337
Yasothon,35170,15.9892,104.1976
Yasothon,35180,15.599,104.395